ECHOSTAR 16             
1 39008U 12065A   26087.46116576 -.00000301  00000+0  00000+0 0  9996
2 39008   0.0180 182.0057 0001991 188.9221 279.4613  1.00272487 48831
ZHONGXING-12            
1 39017U 12067A   26086.13597612 -.00000224  00000+0  00000+0 0  9999
2 39017   0.0294 108.7021 0003388 250.5025 321.8044  1.00271656 48683
EUTELSAT 70B            
1 39020U 12069A   26087.70131404 -.00000063  00000+0  00000+0 0  9993
2 39020   0.0661   7.5889 0001811   1.4609 140.0203  1.00272168 48703
YAMAL 402               
1 39022U 12070A   26087.82406133  .00000067  00000+0  00000+0 0  9997
2 39022   1.0584  85.1636 0004000 276.7616 175.8559  1.00271317 48592
SKYNET 5D               
1 39034U 12075A   26087.76908767  .00000080  00000+0  00000+0 0  9993
2 39034   0.0694   5.5820 0003673 356.0239 154.1657  1.00272592 48354
MEXSAT 3                
1 39035U 12075B   26087.68239102 -.00000045  00000+0  00000+0 0  9997
2 39035   0.0102 188.0498 0000967 165.3570 323.5585  1.00272058  6240
TDRS 11                 
1 39070U 13004A   26087.79534780  .00000062  00000+0  00000+0 0  9999
2 39070   3.4031  29.8134 0004437 353.7258 274.5558  1.00271003 45885
AMAZONAS 3              
1 39078U 13006A   26087.74655425 -.00000302  00000+0  00000+0 0  9992
2 39078   0.0190 202.5673 0002094 147.1841  44.1714  1.00271184 44109
AZERSPACE 1             
1 39079U 13006B   26087.83909223  .00000114  00000+0  00000+0 0  9991
2 39079   0.0160 108.1617 0001254 285.8215 140.3020  1.00272031 48002
SBIRS GEO-2 (USA 241)   
1 39120U 13011A   26087.82002550 -.00000302  00000+0  00000+0 0  9990
2 39120   4.3153  52.4083 0002241 316.4197  62.8057  1.00271026 47733
EUTELSAT 117 WEST A     
1 39122U 13012A   26087.66422056 -.00000032  00000+0  00000+0 0  9992
2 39122   0.0419  35.2892 0002907 332.4899 300.5955  1.00271866 47625
ANIK G1                 
1 39127U 13014A   26087.66612723 -.00000094  00000+0  00000+0 0  9999
2 39127   0.0174 116.4184 0002579 227.4512 334.7043  1.00271298 47440
ZHONGXING-11            
1 39157U 13020A   26086.77977723 -.00000308  00000+0  00000+0 0  9992
2 39157   0.0310 301.3781 0001020  84.5221 177.8728  1.00268189 47083
EUTELSAT 7B             
1 39163U 13022A   26087.84836296  .00000028  00000+0  00000+0 0  9997
2 39163   0.0683   5.1589 0006269 357.5539 135.9292  1.00271004 47141
WGS F5 (USA 243)        
1 39168U 13024A   26087.46307243 -.00000304  00000+0  00000+0 0  9995
2 39168   0.0118 179.7184 0000314 115.6716   4.6862  1.00271308 46368
SES-6                   
1 39172U 13026A   26087.82193219 -.00000281  00000+0  00000+0 0  9992
2 39172   0.0365 307.3127 0002095  78.5637  55.7331  1.00270505 46917
IRNSS-1A                
1 39199U 13034A   26087.01364265  .00000079  00000+0  00000+0 0  9996
2 39199  35.5432  65.0278 0016621 190.5814 349.6873  1.00277123 46550
